GPS BIIR-08             
1 27663U 03005A   26064.41514012  .00000009  00000+0  00000+0 0  9995
2 27663  54.9071 219.0894 0148737  52.7243 318.2187  2.00566237169230
GPS BIIR-11             
1 28190U 04009A   26064.35100823 -.00000023  00000+0  00000+0 0  9997
2 28190  54.9151 279.8814 0111001 169.0892 311.4248  2.00558092160860
GPS BIIR-13             
1 28474U 04045A   26064.34269096 -.00000094  00000+0  00000+0 0  9997
2 28474  55.1942 329.0814 0170827 312.8671 225.0992  2.00573478156347
GPS BIIR-14M            
1 28874U 05038A   26064.65960726 -.00000020  00000+0  00000+0 0  9995
2 28874  54.9620 277.3543 0128771 295.3628  71.8248  2.00572953149769
METEOSAT-9 (MSG-2)      
1 28912U 05049B   26064.59230808  .00000119  00000+0  00000+0 0  9992
2 28912   9.1276  55.1704 0001671 223.3348 143.8053  1.00277983  5962
GPS BIIR-16M            
1 29601U 06052A   26064.21100884  .00000007  00000+0  00000+0 0  9998
2 29601  54.9569 218.1252 0087858  89.3737 271.5836  2.00551710141326
GPS BIIR-17M            
1 32260U 07047A   26064.01919554 -.00000008  00000+0  00000+0 0  9990
2 32260  54.0162  84.3580 0163608  85.9640 275.9610  2.00560713134728
GPS BIIR-18M            
1 32384U 07062A   26064.33725213 -.00000021  00000+0  00000+0 0  9991
2 32384  55.1141 278.3260 0032949 160.6805 197.0086  2.00553612133428
GOES 14                 
1 35491U 09033A   26064.62307487  .00000118  00000+0  00000+0 0  9990
2 35491   1.4225  84.4036 0001785 254.2785 250.0824  1.00099736  5558
GOES 15                 
1 36411U 10008A   26064.66710175  .00000014  00000+0  00000+0 0  9998
2 36411   1.0120  85.1222 0001980  18.8258   3.0758  1.00269602 58609
GSAT0101 (GALILEO-PFM)  
1 37846U 11060A   26053.46432651 -.00000082  00000+0  00000+0 0  9992
2 37846  57.0318 344.8758 0003975 357.0591   2.9533  1.70475478 89166
GSAT0102 (GALILEO-FM2)  
1 37847U 11060B   26060.06318653 -.00000106  00000+0  00000+0 0  9999
2 37847  57.0301 344.6971 0005422 341.2092 154.1953  1.70475778 89286
LUCH 5A                 
1 37951U 11074B   26064.33107759 -.00000052  00000+0  00000+0 0  9997
2 37951   8.4896  75.3325 0003934 246.3674 127.6589  1.00275722 52010
METEOSAT-10 (MSG-3)     
1 38552U 12035B   26064.65462169 -.00000011  00000+0  00000+0 0  9992
2 38552   4.4267  61.4584 0002522 281.0532  56.7950  1.00267196 49814
SARSAT 13 (METOP-B)     
1 38771U 12049A   26064.71430968  .00000168  00000+0  96564-4 0  9996
2 38771  98.6650 118.2136 0001198 287.7658  72.3389 14.21443239698565
GPS BIIF-3              
1 38833U 12053A   26064.11552350  .00000009  00000+0  00000+0 0  9993
2 38833  53.5659 147.8643 0176939  64.7787 297.0919  2.00565848 97356
GSAT0103 (GALILEO-FM3)  
1 38857U 12055A   26063.47673480  .00000012  00000+0  00000+0 0  9991
2 38857  55.7384 104.4182 0005407 285.3640  74.6606  1.70473427 83228
